{
    "links": {
        "self": "http://www.neowsapp.com/rest/v1/neo/3801961?api_key=iIulBulltgU6a56xZRHN4H3l9WmuAYTsLGpBGhQ2"
    },
    "id": "3801961",
    "neo_reference_id": "3801961",
    "name": "(2018 FT)",
    "designation": "2018 FT",
    "nasa_jpl_url": "http://ssd.jpl.nasa.gov/sbdb.cgi?sstr=3801961",
    "absolute_magnitude_h": 25.5,
    "estimated_diameter": {
        "kilometers": {
            "estimated_diameter_min": 0.0211132445,
            "estimated_diameter_max": 0.0472106499
        },
        "meters": {
            "estimated_diameter_min": 21.113244479,
            "estimated_diameter_max": 47.2106498806
        },
        "miles": {
            "estimated_diameter_min": 0.0131191578,
            "estimated_diameter_max": 0.0293353287
        },
        "feet": {
            "estimated_diameter_min": 69.2691770164,
            "estimated_diameter_max": 154.8905885541
        }
    },
    "is_potentially_hazardous_asteroid": false,
    "close_approach_data": [
        {
            "close_approach_date": "2018-03-14",
            "close_approach_date_full": "2018-Mar-14 15:37",
            "epoch_date_close_approach": 1521041820000,
            "relative_velocity": {
                "kilometers_per_second": "17.1444527048",
                "kilometers_per_hour": "61720.0297371403",
                "miles_per_hour": "38350.4262552803"
            },
            "miss_distance": {
                "astronomical": "0.019124218",
                "lunar": "7.439320802",
                "kilometers": "2860942.27821566",
                "miles": "1777707.098309708"
            },
            "orbiting_body": "Earth"
        }
    ],
    "orbital_data": {
        "orbit_id": "2",
        "orbit_determination_date": "2018-03-20 06:51:45",
        "first_observation_date": "2018-03-16",
        "last_observation_date": "2018-03-20",
        "data_arc_in_days": 4,
        "observations_used": 19,
        "orbit_uncertainty": "8",
        "minimum_orbit_intersection": ".0190453",
        "jupiter_tisserand_invariant": "4.088",
        "epoch_osculation": "2458194.5",
        "eccentricity": ".4165224476782614",
        "semi_major_axis": "1.631185198307411",
        "inclination": "28.08857940935434",
        "ascending_node_longitude": "174.5523518160951",
        "orbital_period": "760.9451174151602",
        "perihelion_distance": ".9517599468918583",
        "perihelion_argument": "322.0394000993587",
        "aphelion_distance": "2.310610449722965",
        "perihelion_time": "2458161.490379558775",
        "mean_anomaly": "15.61671543304951",
        "mean_motion": ".4730958800588366",
        "equinox": "J2000",
        "orbit_class": {
            "orbit_class_type": "APO",
            "orbit_class_description": "Near-Earth asteroid orbits which cross the Earth’s orbit similar to that of 1862 Apollo",
            "orbit_class_range": "a (semi-major axis) > 1.0 AU; q (perihelion) < 1.017 AU"
        }
    },
    "is_sentry_object": false
}